SWARM A                 
1 39452U 13067B   26159.44418166  .00009840  00000+0  17021-3 0  9991
2 39452  87.3327  59.4887 0003001  91.8371 268.3233 15.50777061704893
SWARM C                 
1 39453U 13067C   26159.44406815  .00009951  00000+0  17211-3 0  9994
2 39453  87.3327  58.0700 0002961  91.8270 268.3330 15.50779707704858
BRITE-CA1 (TORONTO)     
1 40020U 14033L   26159.34087104  .00000723  00000+0  11645-3 0  9998
2 40020  97.9729 288.4324 0077461 305.8308  53.5720 14.72664800640914
OCO 2                   
1 40059U 14035A   26159.50309649  .00000462  00000+0  11260-3 0  9994
2 40059  98.2015 100.9286 0001484  87.4388 272.6980 14.57104452634781
BRITE-PL2 (HEWELIUSZ)   
1 40119U 14049B   26159.20108343  .00002529  00000+0  23888-3 0  9996
2 40119  97.9088 271.1327 0015155 135.2665 224.9780 14.94564335640103
MMS 1                   
1 40482U 15011A   26159.50002315 -.00000072  00000+0  00000+0 0  9993
2 40482  72.1863 348.8931 8336000 167.2409 132.7953  0.28318433  1386
MMS 2                   
1 40483U 15011B   26159.50002315 -.00000072  00000+0  00000+0 0  9994
2 40483  72.1865 348.8953 8336781 167.2465 132.7836  0.28318437  1385
MMS 3                   
1 40484U 15011C   26159.50002315 -.00000071  00000+0  00000+0 0  9994
2 40484  72.1895 348.8998 8335971 167.2410 132.7802  0.28318412  1384
MMS 4                   
1 40485U 15011D   26159.50002315 -.00000072  00000+0  00000+0 0  9996
2 40485  72.1858 348.8955 8335573 167.2488 132.7684  0.28318401  1386
ASTROSAT                
1 40930U 15052A   26159.27859492  .00001670  00000+0  12145-3 0  9997
2 40930   5.9954 219.4891 0008543 268.4611  91.4538 14.82493087578503
DAMPE                   
1 41173U 15078A   26159.47439711  .00001881  00000+0  65748-4 0  9997
2 41173  97.4562 164.8991 0013668 103.5794 256.6970 15.30764799583217
PISAT                   
1 41784U 16059B   26159.49328747  .00001004  00000+0  17847-3 0  9996
2 41784  97.8178 160.3198 0027774 231.5012 128.3703 14.68969099518464
HXMT (HUIYAN)           
1 42758U 17034A   26159.51719596  .00004305  00000+0  21464-3 0  9998
2 42758  43.0131 231.3169 0030173  89.9042 270.5264 15.18416131496344
FLYING LAPTOP           
1 42831U 17042G   26159.51986329  .00003752  00000+0  29663-3 0  9993
2 42831  97.4657 315.3891 0019144 150.0384 210.1941 15.01089764485150
ZHANGHENG 1-01 (CSES-1) 
1 43194U 18015C   26159.51939286  .00006497  00000+0  29774-3 0  9999
2 43194  97.6868 325.0064 0017169 299.0410  60.9104 15.20701325463320
SALSAT                  
1 46495U 20068K   26158.98778249  .00008175  00000+0  28698-3 0  9996
2 46495  97.8853 161.4934 0008911 345.1768  14.9208 15.29667638313959
IXPE                    
1 49954U 21121A   26159.50002315  .00009806  00000+0  52760-3 0  9992
2 49954   0.2314  23.1606 0007606 308.5314 164.7554 15.10174909  5929
SMILE                   
1 69123U 26109A   26144.65318427 -.00001976  00000+0 -42379-3 0  9994
2 69123  70.0007 229.2745 0009123 259.5159 100.4951 14.57062785   802
