OBJECT_NAME,OBJECT_ID,EPOCH,MEAN_MOTION,ECCENTRICITY,INCLINATION,RA_OF_ASC_NODE,ARG_OF_PERICENTER,MEAN_ANOMALY,EPHEMERIS_TYPE,CLASSIFICATION_TYPE,NORAD_CAT_ID,ELEMENT_SET_NO,REV_AT_EPOCH,BSTAR,MEAN_MOTION_DOT,MEAN_MOTION_DDOT
SWARM A,2013-067B,2026-06-08T10:39:37.295424,15.50777061,.0003001,87.3327,59.4887,91.8371,268.3233,0,U,39452,999,70489,.17021E-3,.984E-4,0
SWARM C,2013-067C,2026-06-08T10:39:27.488160,15.50779707,.0002961,87.3327,58.0700,91.8270,268.3330,0,U,39453,999,70485,.17211E-3,.9951E-4,0
BRITE-CA1 (TORONTO),2014-033L,2026-06-08T08:10:51.257856,14.72664800,.0077461,97.9729,288.4324,305.8308,53.5720,0,U,40020,999,64091,.11645E-3,.723E-5,0
OCO 2,2014-035A,2026-06-08T12:04:27.536736,14.57104452,.0001484,98.2015,100.9286,87.4388,272.6980,0,U,40059,999,63478,.1126E-3,.462E-5,0
BRITE-PL2 (HEWELIUSZ),2014-049B,2026-06-08T04:49:33.608352,14.94564335,.0015155,97.9088,271.1327,135.2665,224.9780,0,U,40119,999,64010,.23888E-3,.2529E-4,0
MMS 1,2015-011A,2026-06-08T12:00:02.000160,0.28318433,.8336,72.1863,348.8931,167.2409,132.7953,0,U,40482,999,138,0,-.72E-6,0
MMS 2,2015-011B,2026-06-08T12:00:02.000160,0.28318437,.8336781,72.1865,348.8953,167.2465,132.7836,0,U,40483,999,138,0,-.72E-6,0
MMS 3,2015-011C,2026-06-08T12:00:02.000160,0.28318412,.8335971,72.1895,348.8998,167.2410,132.7802,0,U,40484,999,138,0,-.71E-6,0
MMS 4,2015-011D,2026-06-08T12:00:02.000160,0.28318401,.8335573,72.1858,348.8955,167.2488,132.7684,0,U,40485,999,138,0,-.72E-6,0
ASTROSAT,2015-052A,2026-06-08T06:41:10.601088,14.82493087,.0008543,5.9954,219.4891,268.4611,91.4538,0,U,40930,999,57850,.12145E-3,.167E-4,0
DAMPE,2015-078A,2026-06-08T11:23:07.910304,15.30764799,.0013668,97.4562,164.8991,103.5794,256.6970,0,U,41173,999,58321,.65748E-4,.1881E-4,0
PISAT,2016-059B,2026-06-08T11:50:20.037408,14.68969099,.0027774,97.8178,160.3198,231.5012,128.3703,0,U,41784,999,51846,.17847E-3,.1004E-4,0
HXMT (HUIYAN),2017-034A,2026-06-08T12:24:45.730944,15.18416131,.0030173,43.0131,231.3169,89.9042,270.5264,0,U,42758,999,49634,.21464E-3,.4305E-4,0
FLYING LAPTOP,2017-042G,2026-06-08T12:28:36.188256,15.01089764,.0019144,97.4657,315.3891,150.0384,210.1941,0,U,42831,999,48515,.29663E-3,.3752E-4,0
ZHANGHENG 1-01 (CSES-1),2018-015C,2026-06-08T12:27:55.543104,15.20701325,.0017169,97.6868,325.0064,299.0410,60.9104,0,U,43194,999,46332,.29774E-3,.6497E-4,0
SALSAT,2020-068K,2026-06-07T23:42:24.407136,15.29667638,.00089117,97.8853,161.4934,345.1768,14.9208,0,U,46495,999,31395,.28698063E-3,.8175E-4,0
IXPE,2021-121A,2026-06-08T12:00:02.000160,15.10174909,.0007606,0.2314,23.1606,308.5314,164.7554,0,U,49954,999,592,.5276E-3,.9806E-4,0
SMILE,2026-109A,2026-05-24T15:40:35.120928,14.57062785,.00091232,70.0007,229.2745,259.5159,100.4951,0,U,69123,999,80,-.42378883E-3,-.1976E-4,0
